{"type": "FeatureCollection", "features": [ {"type": "Feature", "properties": {"norad_id": 43010, "name": "FENGYUN 3D", "group": "weather", "lat": -59.381677640932594, "lon": -29.447511128386513, "alt_km": 833.8958230911567, "timestamp": "2025-12-14T16:47:40.326192+00:00", "meta": {"OBJECT_NAME": "FENGYUN 3D", "OBJECT_ID": "2017-072A", "EPOCH": "2025-12-13T22:28:24.742272", "MEAN_MOTION": 14.19684562, "ECCENTRICITY": 9.767e-05, "INCLINATION": 98.9892, "RA_OF_ASC_NODE": 314.2645, "ARG_OF_PERICENTER": 177.8445, "MEAN_ANOMALY": 182.2735, "EPHEMERIS_TYPE": 0, "CLASSIFICATION_TYPE": "U", "NORAD_CAT_ID": 43010, "ELEMENT_SET_NO": 999, "REV_AT_EPOCH": 41870, "BSTAR": 7.6432679e-05, "MEAN_MOTION_DOT": 1.16e-06, "MEAN_MOTION_DDOT": 0}, "tle": {"line1": "1 43010U 17072A   25347.93639748  .00000116  00000+0  76433-4 0  9999", "line2": "2 43010  98.9892 314.2645 0000976 177.8445 182.2735 14.19684562418702"}}, "geometry": {"type": "Point", "coordinates": [-29.447511128386513, -59.381677640932594]}}, {"type": "Feature", "properties": {"norad_id": 43013, "name": "NOAA 20 (JPSS-1)", "group": "weather", "lat": 81.21218024898786, "lon": -169.15163646014193, "alt_km": 817.960588786872, "timestamp": "2025-12-14T16:47:40.326204+00:00", "meta": {"OBJECT_NAME": "NOAA 20 (JPSS-1)", "OBJECT_ID": "2017-073A", "EPOCH": "2025-12-13T21:45:40.066272", "MEAN_MOTION": 14.19526091, "ECCENTRICITY": 0.00021449, "INCLINATION": 98.7599, "RA_OF_ASC_NODE": 284.1907, "ARG_OF_PERICENTER": 85.6594, "MEAN_ANOMALY": 274.4827, "EPHEMERIS_TYPE": 0, "CLASSIFICATION_TYPE": "U", "NORAD_CAT_ID": 43013, "ELEMENT_SET_NO": 999, "REV_AT_EPOCH": 41818, "BSTAR": 8.1531541e-05, "MEAN_MOTION_DOT": 1.28e-06, "MEAN_MOTION_DDOT": 0}, "tle": {"line1": "1 43013U 17073A   25347.90671373  .00000128  00000+0  81532-4 0  9999", "line2": "2 43013  98.7599 284.1907 0002144  85.6594 274.4827 14.19526091418183"}}, "geometry": {"type": "Point", "coordinates": [-169.15163646014193, 81.21218024898786]}}, {"type": "Feature", "properties": {"norad_id": 43226, "name": "GOES 17", "group": "weather", "lat": 0.16005655711909417, "lon": -113.98903165075662, "alt_km": 35774.52445539994, "timestamp": "2025-12-14T16:47:40.326218+00:00", "meta": {"OBJECT_NAME": "GOES 17", "OBJECT_ID": "2018-022A", "EPOCH": "2025-12-13T21:35:06.317088", "MEAN_MOTION": 1.0027171, "ECCENTRICITY": 0.00032277, "INCLINATION": 0.4629, "RA_OF_ASC_NODE": 89.1019, "ARG_OF_PERICENTER": 188.863, "MEAN_ANOMALY": 39.1437, "EPHEMERIS_TYPE": 0, "CLASSIFICATION_TYPE": "U", "NORAD_CAT_ID": 43226, "ELEMENT_SET_NO": 999, "REV_AT_EPOCH": 2856, "BSTAR": 0, "MEAN_MOTION_DOT": -1.66e-06, "MEAN_MOTION_DDOT": 0}, "tle": {"line1": "1 43226U 18022A   25347.89937867 -.00000166  00000+0  00000+0 0  9990", "line2": "2 43226   0.4629  89.1019 0003227 188.8630  39.1437  1.00271710 28563"}}, "geometry": {"type": "Point", "coordinates": [-113.98903165075662, 0.16005655711909417]}}, {"type": "Feature", "properties": {"norad_id": 43491, "name": "FENGYUN 2H", "group": "weather", "lat": -1.1159450256120582, "lon": 54.91179112548424, "alt_km": 35797.56159907365, "timestamp": "2025-12-14T16:47:40.326231+00:00", "meta": {"OBJECT_NAME": "FENGYUN 2H", "OBJECT_ID": "2018-050A", "EPOCH": "2025-12-14T00:05:59.364384", "MEAN_MOTION": 1.00271275, "ECCENTRICITY": 0.00027184, "INCLINATION": 2.5544, "RA_OF_ASC_NODE": 81.3175, "ARG_OF_PERICENTER": 167.4258, "MEAN_ANOMALY": 275.0407, "EPHEMERIS_TYPE": 0, "CLASSIFICATION_TYPE": "U", "NORAD_CAT_ID": 43491, "ELEMENT_SET_NO": 999, "REV_AT_EPOCH": 2758, "BSTAR": 0, "MEAN_MOTION_DOT": -1.14e-06, "MEAN_MOTION_DDOT": 0}, "tle": {"line1": "1 43491U 18050A   25348.00415931 -.00000114  00000+0  00000+0 0  9995", "line2": "2 43491   2.5544  81.3175 0002718 167.4258 275.0407  1.00271275 27581"}}, "geometry": {"type": "Point", "coordinates": [54.91179112548424, -1.1159450256120582]}}, {"type": "Feature", "properties": {"norad_id": 43689, "name": "METOP-C", "group": "weather", "lat": -64.06770452271235, "lon": -151.89887493382219, "alt_km": 828.2517028649827, "timestamp": "2025-12-14T16:47:40.326250+00:00", "meta": {"OBJECT_NAME": "METOP-C", "OBJECT_ID": "2018-087A", "EPOCH": "2025-12-13T22:45:00.537696", "MEAN_MOTION": 14.21484945, "ECCENTRICITY": 0.00011919, "INCLINATION": 98.693, "RA_OF_ASC_NODE": 45.6992, "ARG_OF_PERICENTER": 37.2366, "MEAN_ANOMALY": 322.8894, "EPHEMERIS_TYPE": 0, "CLASSIFICATION_TYPE": "U", "NORAD_CAT_ID": 43689, "ELEMENT_SET_NO": 999, "REV_AT_EPOCH": 36851, "BSTAR": 0.00010943913, "MEAN_MOTION_DOT": 1.96e-06, "MEAN_MOTION_DDOT": 0}, "tle": {"line1": "1 43689U 18087A   25347.94792289  .00000196  00000+0  10944-3 0  9991", "line2": "2 43689  98.6930  45.6992 0001191  37.2366 322.8894 14.21484945368512"}}, "geometry": {"type": "Point", "coordinates": [-151.89887493382219, -64.06770452271235]}}, {"type": "Feature", "properties": {"norad_id": 43823, "name": "GEO-KOMPSAT-2A", "group": "weather", "lat": 0.0034354823505622716, "lon": 103.79846974281548, "alt_km": 35783.930508836806, "timestamp": "2025-12-14T16:47:40.326263+00:00", "meta": {"OBJECT_NAME": "GEO-KOMPSAT-2A", "OBJECT_ID": "2018-100A", "EPOCH": "2025-12-13T22:37:15.364416", "MEAN_MOTION": 1.00273273, "ECCENTRICITY": 4.49e-05, "INCLINATION": 0.0455, "RA_OF_ASC_NODE": 141.9577, "ARG_OF_PERICENTER": 335.1899, "MEAN_ANOMALY": 73.3078, "EPHEMERIS_TYPE": 0, "CLASSIFICATION_TYPE": "U", "NORAD_CAT_ID": 43823, "ELEMENT_SET_NO": 999, "REV_AT_EPOCH": 2577, "BSTAR": 0, "MEAN_MOTION_DOT": -3.27e-06, "MEAN_MOTION_DDOT": 0}, "tle": {"line1": "1 43823U 18100A   25347.94253894 -.00000327  00000+0  00000+0 0  9996", "line2": "2 43823   0.0455 141.9577 0000449 335.1899  73.3078  1.00273273 25779"}}, "geometry": {"type": "Point", "coordinates": [103.79846974281548, 0.0034354823505622716]}}, {"type": "Feature", "properties": {"norad_id": 44387, "name": "METEOR-M2 2", "group": "weather", "lat": -20.53614828944801, "lon": -28.18337837859275, "alt_km": 816.9332836696567, "timestamp": "2025-12-14T16:47:40.326274+00:00", "meta": {"OBJECT_NAME": "METEOR-M2 2", "OBJECT_ID": "2019-038A", "EPOCH": "2025-12-14T00:01:55.312896", "MEAN_MOTION": 14.2429304, "ECCENTRICITY": 0.00013075, "INCLINATION": 98.8975, "RA_OF_ASC_NODE": 327.7455, "ARG_OF_PERICENTER": 145.0862, "MEAN_ANOMALY": 215.0402, "EPHEMERIS_TYPE": 0, "CLASSIFICATION_TYPE": "U", "NORAD_CAT_ID": 44387, "ELEMENT_SET_NO": 999, "REV_AT_EPOCH": 33493, "BSTAR": 0.0002223079, "MEAN_MOTION_DOT": 4.68e-06, "MEAN_MOTION_DDOT": 0}, "tle": {"line1": "1 44387U 19038A   25348.00133464  .00000468  00000+0  22231-3 0  9990", "line2": "2 44387  98.8975 327.7455 0001307 145.0862 215.0402 14.24293040334939"}}, "geometry": {"type": "Point", "coordinates": [-28.18337837859275, -20.53614828944801]}}, {"type": "Feature", "properties": {"norad_id": 47719, "name": "ARKTIKA-M 1", "group": "weather", "lat": 57.652472363839955, "lon": 136.69875895022616, "alt_km": 34233.96534473649, "timestamp": "2025-12-14T16:47:40.326287+00:00", "meta": {"OBJECT_NAME": "ARKTIKA-M 1", "OBJECT_ID": "2021-016A", "EPOCH": "2025-12-09T14:03:23.859648", "MEAN_MOTION": 2.00631311, "ECCENTRICITY": 0.7202538, "INCLINATION": 63.1769, "RA_OF_ASC_NODE": 84.4506, "ARG_OF_PERICENTER": 269.1116, "MEAN_ANOMALY": 15.6235, "EPHEMERIS_TYPE": 0, "CLASSIFICATION_TYPE": "U", "NORAD_CAT_ID": 47719, "ELEMENT_SET_NO": 999, "REV_AT_EPOCH": 3498, "BSTAR": 0, "MEAN_MOTION_DOT": -6.1e-07, "MEAN_MOTION_DDOT": 0}, "tle": {"line1": "1 47719U 21016A   25343.58569282 -.00000061  00000+0  00000+0 0  9996", "line2": "2 47719  63.1769  84.4506 7202538 269.1116  15.6235  2.00631311 34985"}}, "geometry": {"type": "Point", "coordinates": [136.69875895022616, 57.652472363839955]}}, {"type": "Feature", "properties": {"norad_id": 49008, "name": "FENGYUN 3E", "group": "weather", "lat": -80.89652115796606, "lon": 95.26266113158218, "alt_km": 832.6994992829514, "timestamp": "2025-12-14T16:47:40.326303+00:00", "meta": {"OBJECT_NAME": "FENGYUN 3E", "OBJECT_ID": "2021-062A", "EPOCH": "2025-12-14T00:19:02.377344", "MEAN_MOTION": 14.19879299, "ECCENTRICITY": 5.568e-05, "INCLINATION": 98.7481, "RA_OF_ASC_NODE": 348.5192, "ARG_OF_PERICENTER": 256.112, "MEAN_ANOMALY": 103.9995, "EPHEMERIS_TYPE": 0, "CLASSIFICATION_TYPE": "U", "NORAD_CAT_ID": 49008, "ELEMENT_SET_NO": 999, "REV_AT_EPOCH": 23030, "BSTAR": -2.9459641e-05, "MEAN_MOTION_DOT": -1.06e-06, "MEAN_MOTION_DDOT": 0}, "tle": {"line1": "1 49008U 21062A   25348.01322196 -.00000106  00000+0 -29460-4 0  9991", "line2": "2 49008  98.7481 348.5192 0000556 256.1120 103.9995 14.19879299230308"}}, "geometry": {"type": "Point", "coordinates": [95.26266113158218, -80.89652115796606]}}, {"type": "Feature", "properties": {"norad_id": 51850, "name": "GOES 18", "group": "weather", "lat": -0.00036923269657062387, "lon": -161.47094527311447, "alt_km": 35786.97957644627, "timestamp": "2025-12-14T16:47:40.326316+00:00", "meta": {"OBJECT_NAME": "GOES 18", "OBJECT_ID": "2022-021A", "EPOCH": "2025-12-13T17:56:02.494176", "MEAN_MOTION": 1.00273314, "ECCENTRICITY": 6.581e-05, "INCLINATION": 0.0064, "RA_OF_ASC_NODE": 232.7478, "ARG_OF_PERICENTER": 86.902, "MEAN_ANOMALY": 255.043, "EPHEMERIS_TYPE": 0, "CLASSIFICATION_TYPE": "U", "NORAD_CAT_ID": 51850, "ELEMENT_SET_NO": 999, "REV_AT_EPOCH": 473, "BSTAR": 0, "MEAN_MOTION_DOT": 1.12e-06, "MEAN_MOTION_DDOT": 0}, "tle": {"line1": "1 51850U 22021A   25347.74725109  .00000112  00000+0  00000+0 0  9994", "line2": "2 51850   0.0064 232.7478 0000658  86.9020 255.0430  1.00273314  4732"}}, "geometry": {"type": "Point", "coordinates": [-161.47094527311447, -0.00036923269657062387]}}]}